CTC1_L_00552025-03
1 10434U 22946PE  26075.70038194  .00000000  00000+0  00000-0 0  9996
2 10434  97.4000 288.0000 0000000   0.0000 104.0000 15.21936487    14
CTC1_L_00552025-04
1 10435U 25131ZD  26075.70038194  .00000000  00000+0  00000-0 0  9996
2 10435  97.4000 288.0000 0000000   0.0000 124.0000 15.21936487    17
CTC1_L_00552025-05
1 10436U 23717GY  26075.70038194  .00000000  00000+0  00000-0 0  9995
2 10436  97.4000 288.0000 0000000   0.0000 144.0000 15.21936487    10
CTC1_L_00552025-06
1 10437U 22828BB  26075.70038194  .00000000  00000+0  00000-0 0  9998
2 10437  97.4000 288.0000 0000000   0.0000 164.0000 15.21936487    13
CTC1_L_00552025-07
1 10438U 23206FM  26075.70038194  .00000000  00000+0  00000-0 0  9990
2 10438  97.4000 288.0000 0000000   0.0000 184.0000 15.21936487    16
CTC1_L_00552025-08
1 10439U 24882JK  26075.70038194  .00000000  00000+0  00000-0 0  9992
2 10439  97.4000 288.0000 0000000   0.0000 204.0000 15.21936487    10
CTC1_L_00552025-09
1 10440U 26835BV  26075.70038194  .00000000  00000+0  00000-0 0  9994
2 10440  97.4000 288.0000 0000000   0.0000 224.0000 15.21936487    14
CTC1_L_00552025-10
1 10441U 22083EY  26075.70038194  .00000000  00000+0  00000-0 0  9996
2 10441  97.4000 288.0000 0000000   0.0000 244.0000 15.21936487    17
CTC1_L_00552025-11
1 10442U 26289VM  26075.70038194  .00000000  00000+0  00000-0 0  9999
2 10442  97.4000 288.0000 0000000   0.0000 264.0000 15.21936487    10
CTC1_L_00552025-12
1 10443U 24466TX  26075.70038194  .00000000  00000+0  00000-0 0  9995
2 10443  97.4000 288.0000 0000000   0.0000 284.0000 15.21936487    13
CTC1_L_00552025-13
1 10444U 25670GC  26075.70038194  .00000000  00000+0  00000-0 0  9994
2 10444  97.4000 288.0000 0000000   0.0000 304.0000 15.21936487    17
CTC1_L_00552025-14
1 10445U 23020CS  26075.70038194  .00000000  00000+0  00000-0 0  9992
2 10445  97.4000 288.0000 0000000   0.0000 324.0000 15.21936487    10
CTC1_L_00552025-15
1 10446U 22210SA  26075.70038194  .00000000  00000+0  00000-0 0  9993
2 10446  97.4000 288.0000 0000000   0.0000 344.0000 15.21936487    13
CTC1_L_00552025-16
1 10447U 25537NI  26075.70038194  .00000000  00000+0  00000-0 0  9999
2 10447  97.4000 288.0000 0000000   0.0000   4.0000 15.21936487    17
CTC1_L_00552025-17
1 10448U 23312OK  26075.70038194  .00000000  00000+0  00000-0 0  9999
2 10448  97.4000 288.0000 0000000   0.0000  24.0000 15.21936487    10
CTC1_L_00552025-18
1 10449U 26459NI  26075.70038194  .00000000  00000+0  00000-0 0  9995
2 10449  97.4000 288.0000 0000000   0.0000  44.0000 15.21936487    13
CTC1_L_00552026-01
1 10450U 25135U   26075.70038194  .00000000  00000+0  00000-0 0  9997
2 10450  97.4000 300.0000 0000000   0.0000  66.6667 15.21936487    19
CTC1_L_00552026-02
1 10451U 26183CM  26075.70038194  .00000000  00000+0  00000-0 0  9992
2 10451  97.4000 300.0000 0000000   0.0000  86.6667 15.21936487    12
CTC1_L_00552026-03
1 10452U 26465BL  26075.70038194  .00000000  00000+0  00000-0 0  9996
2 10452  97.4000 300.0000 0000000   0.0000 106.6667 15.21936487    16
CTC1_L_00552026-04
1 10453U 22134VU  26075.70038194  .00000000  00000+0  00000-0 0  9996
2 10453  97.4000 300.0000 0000000   0.0000 126.6667 15.21936487    19
CTC1_L_00552026-05
1 10454U 26899SI  26075.70038194  .00000000  00000+0  00000-0 0  9999
2 10454  97.4000 300.0000 0000000   0.0000 146.6667 15.21936487    12
CTC1_L_00552026-06
1 10455U 25637FA  26075.70038194  .00000000  00000+0  00000-0 0  9999
2 10455  97.4000 300.0000 0000000   0.0000 166.6667 15.21936487    15
CTC1_L_00552026-07
1 10456U 25202Z   26075.70038194  .00000000  00000+0  00000-0 0  9998
2 10456  97.4000 300.0000 0000000   0.0000 186.6667 15.21936487    18
CTC1_L_00552026-08
1 10457U 26584UW  26075.70038194  .00000000  00000+0  00000-0 0  9993
2 10457  97.4000 300.0000 0000000   0.0000 206.6667 15.21936487    12
CTC1_L_00552026-09
1 10458U 25828F   26075.70038194  .00000000  00000+0  00000-0 0  9994
2 10458  97.4000 300.0000 0000000   0.0000 226.6667 15.21936487    15
CTC1_L_00552026-10
1 10459U 26424UN  26075.70038194  .00000000  00000+0  00000-0 0  9998
2 10459  97.4000 300.0000 0000000   0.0000 246.6667 15.21936487    18
CTC1_L_00552026-11
1 10460U 25027YH  26075.70038194  .00000000  00000+0  00000-0 0  9998
2 10460  97.4000 300.0000 0000000   0.0000 266.6667 15.21936487    12
CTC1_L_00552026-12
1 10461U 23480QY  26075.70038194  .00000000  00000+0  00000-0 0  9990
2 10461  97.4000 300.0000 0000000   0.0000 286.6667 15.21936487    15
CTC1_L_00552026-13
1 10462U 22832RU  26075.70038194  .00000000  00000+0  00000-0 0  9991
2 10462  97.4000 300.0000 0000000   0.0000 306.6667 15.21936487    19
CTC1_L_00552026-14
1 10463U 24078WS  26075.70038194  .00000000  00000+0  00000-0 0  9996
2 10463  97.4000 300.0000 0000000   0.0000 326.6667 15.21936487    12
CTC1_L_00552026-15
1 10464U 23881LD  26075.70038194  .00000000  00000+0  00000-0 0  9998
2 10464  97.4000 300.0000 0000000   0.0000 346.6667 15.21936487    15
CTC1_L_00552026-16
1 10465U 23858QC  26075.70038194  .00000000  00000+0  00000-0 0  9993
2 10465  97.4000 300.0000 0000000   0.0000   6.6667 15.21936487    19
CTC1_L_00552026-17
1 10466U 22369YY  26075.70038194  .00000000  00000+0  00000-0 0  9990
2 10466  97.4000 300.0000 0000000   0.0000  26.6667 15.21936487    12
CTC1_L_00552026-18
1 10467U 25725KH  26075.70038194  .00000000  00000+0  00000-0 0  9990
2 10467  97.4000 300.0000 0000000   0.0000  46.6667 15.21936487    15
CTC1_L_00552027-01
1 10468U 25467K   26075.70038194  .00000000  00000+0  00000-0 0  9994
2 10468  97.4000 312.0000 0000000   0.0000  69.3333 15.21936487    11
CTC1_L_00552027-02
1 10469U 26394KL  26075.70038194  .00000000  00000+0  00000-0 0  9995
2 10469  97.4000 312.0000 0000000   0.0000  89.3333 15.21936487    14
CTC1_L_00552027-03
1 10470U 26373KZ  26075.70038194  .00000000  00000+0  00000-0 0  9994
2 10470  97.4000 312.0000 0000000   0.0000 109.3333 15.21936487    19
CTC1_L_00552027-04
1 10471U 26396PN  26075.70038194  .00000000  00000+0  00000-0 0  9990
2 10471  97.4000 312.0000 0000000   0.0000 129.3333 15.21936487    12
CTC1_L_00552027-05
1 10472U 24819UU  26075.70038194  .00000000  00000+0  00000-0 0  9999
2 10472  97.4000 312.0000 0000000   0.0000 149.3333 15.21936487    15
CTC1_L_00552027-06
1 10473U 24163RG  26075.70038194  .00000000  00000+0  00000-0 0  9992
2 10473  97.4000 312.0000 0000000   0.0000 169.3333 15.21936487    18
CTC1_L_00552027-07
1 10474U 23806JJ  26075.70038194  .00000000  00000+0  00000-0 0  9996
2 10474  97.4000 312.0000 0000000   0.0000 189.3333 15.21936487    11
CTC1_L_00552027-08
1 10475U 26790O   26075.70038194  .00000000  00000+0  00000-0 0  9992
2 10475  97.4000 312.0000 0000000   0.0000 209.3333 15.21936487    15
CTC1_L_00552027-09
1 10476U 26143OJ  26075.70038194  .00000000  00000+0  00000-0 0  9995
2 10476  97.4000 312.0000 0000000   0.0000 229.3333 15.21936487    18
CTC1_L_00552027-10
1 10477U 26607TT  26075.70038194  .00000000  00000+0  00000-0 0  9991
2 10477  97.4000 312.0000 0000000   0.0000 249.3333 15.21936487    11
CTC1_L_00552027-11
1 10478U 25815JY  26075.70038194  .00000000  00000+0  00000-0 0  9992
2 10478  97.4000 312.0000 0000000   0.0000 269.3333 15.21936487    14
CTC1_L_00552027-12
1 10479U 22206BI  26075.70038194  .00000000  00000+0  00000-0 0  9994
2 10479  97.4000 312.0000 0000000   0.0000 289.3333 15.21936487    17
CTC1_L_00552027-13
1 10480U 23034JE  26075.70038194  .00000000  00000+0  00000-0 0  9996
2 10480  97.4000 312.0000 0000000   0.0000 309.3333 15.21936487    12
CTC1_L_00552027-14
1 10481U 24159LQ  26075.70038194  .00000000  00000+0  00000-0 0  9996
2 10481  97.4000 312.0000 0000000   0.0000 329.3333 15.21936487    15
CTC1_L_00552027-15
1 10482U 24318OQ  26075.70038194  .00000000  00000+0  00000-0 0  9994
2 10482  97.4000 312.0000 0000000   0.0000 349.3333 15.21936487    18
CTC1_L_00552027-16
1 10483U 25543MX  26075.70038194  .00000000  00000+0  00000-0 0  9996
2 10483  97.4000 312.0000 0000000   0.0000   9.3333 15.21936487    12
CTC1_L_00552027-17
1 10484U 24889PM  26075.70038194  .00000000  00000+0  00000-0 0  9999
2 10484  97.4000 312.0000 0000000   0.0000  29.3333 15.21936487    15
CTC1_L_00552027-18
1 10485U 26903BW  26075.70038194  .00000000  00000+0  00000-0 0  9999
2 10485  97.4000 312.0000 0000000   0.0000  49.3333 15.21936487    18
CTC1_L_00552028-01
1 10486U 26829CX  26075.70038194  .00000000  00000+0  00000-0 0  9997
2 10486  97.4000 324.0000 0000000   0.0000  72.0000 15.21936487    16
CTC1_L_00552028-02
1 10487U 26062GS  26075.70038194  .00000000  00000+0  00000-0 0  9997
2 10487  97.4000 324.0000 0000000   0.0000  92.0000 15.21936487    19
CTC1_L_00552028-03
1 10488U 24835KO  26075.70038194  .00000000  00000+0  00000-0 0  9994
2 10488  97.4000 324.0000 0000000   0.0000 112.0000 15.21936487    13
CTC1_L_00552028-04
1 10489U 23265SQ  26075.70038194  .00000000  00000+0  00000-0 0  9991
2 10489  97.4000 324.0000 0000000   0.0000 132.0000 15.21936487    16
CTC1_L_00552028-05
1 10490U 24800TV  26075.70038194  .00000000  00000+0  00000-0 0  9999
2 10490  97.4000 324.0000 0000000   0.0000 152.0000 15.21936487    10
CTC1_L_00552028-06
1 10491U 22583JR  26075.70038194  .00000000  00000+0  00000-0 0  9996
2 10491  97.4000 324.0000 0000000   0.0000 172.0000 15.21936487    13
CTC1_L_00552028-07
1 10492U 23918MS  26075.70038194  .00000000  00000+0  00000-0 0  9990
2 10492  97.4000 324.0000 0000000   0.0000 192.0000 15.21936487    16
CTC1_L_00552028-08
1 10493U 26615TR  26075.70038194  .00000000  00000+0  00000-0 0  9998
2 10493  97.4000 324.0000 0000000   0.0000 212.0000 15.21936487    10
CTC1_L_00552028-09
1 10494U 26626NZ  26075.70038194  .00000000  00000+0  00000-0 0  9991
2 10494  97.4000 324.0000 0000000   0.0000 232.0000 15.21936487    13
CTC1_L_00552028-10
1 10495U 23011BW  26075.70038194  .00000000  00000+0  00000-0 0  9997
2 10495  97.4000 324.0000 0000000   0.0000 252.0000 15.21936487    16
